STARLINK-4077           
1 53154U 22083Y   26068.53943150 -.00000824  00000+0 -33683-4 0  9997
2 53154  53.2175 164.7947 0001460 105.6098 254.5055 15.08838007201336
DISKSAT B               
1 67220U 25305B   26068.81497770  .00012481  00000+0  82401-3 0  9990
2 67220  45.0018 250.2098 0003783 311.4052  48.6498 15.07484556 12311
